{"type": "FeatureCollection", "features": [ {"type": "Feature", "properties": {"norad_id": 66940, "name": "STARLINK-36121", "group": "last-30-days", "lat": -26.166523570408927, "lon": -179.8018334248072, "alt_km": 414.1314050640585, "timestamp": "2025-12-27T04:40:44.220471+00:00", "meta": {"OBJECT_NAME": "STARLINK-36121", "OBJECT_ID": "2025-286R", "EPOCH": "2025-12-26T22:00:01.999584", "MEAN_MOTION": 15.53503646, "ECCENTRICITY": 0.00013207, "INCLINATION": 53.159, "RA_OF_ASC_NODE": 339.9206, "ARG_OF_PERICENTER": 80.7838, "MEAN_ANOMALY": 16.055, "EPHEMERIS_TYPE": 0, "CLASSIFICATION_TYPE": "U", "NORAD_CAT_ID": 66940, "ELEMENT_SET_NO": 999, "REV_AT_EPOCH": 426, "BSTAR": -0.034915485, "MEAN_MOTION_DOT": -0.02016294, "MEAN_MOTION_DDOT": 0}, "tle": {"line1": "1 66940U 25286R   25360.91668981 -.02016294  00000+0 -34915-1 0  9990", "line2": "2 66940  53.1590 339.9206 0001320  80.7838  16.0550 15.53503646  4269"}}, "geometry": {"type": "Point", "coordinates": [-179.8018334248072, -26.166523570408927]}}, {"type": "Feature", "properties": {"norad_id": 66941, "name": "STARLINK-36088", "group": "last-30-days", "lat": -44.352213496699015, "lon": -154.33741911936627, "alt_km": 409.784666406882, "timestamp": "2025-12-27T04:40:44.220482+00:00", "meta": {"OBJECT_NAME": "STARLINK-36088", "OBJECT_ID": "2025-286S", "EPOCH": "2025-12-26T22:00:01.999584", "MEAN_MOTION": 15.5546861, "ECCENTRICITY": 0.00016382, "INCLINATION": 53.1598, "RA_OF_ASC_NODE": 339.8691, "ARG_OF_PERICENTER": 92.4201, "MEAN_ANOMALY": 29.933, "EPHEMERIS_TYPE": 0, "CLASSIFICATION_TYPE": "U", "NORAD_CAT_ID": 66941, "ELEMENT_SET_NO": 999, "REV_AT_EPOCH": 426, "BSTAR": -0.032557313, "MEAN_MOTION_DOT": -0.02021276, "MEAN_MOTION_DDOT": 0}, "tle": {"line1": "1 66941U 25286S   25360.91668981 -.02021276  00000+0 -32557-1 0  9997", "line2": "2 66941  53.1598 339.8691 0001638  92.4201  29.9330 15.55468610  4263"}}, "geometry": {"type": "Point", "coordinates": [-154.33741911936627, -44.352213496699015]}}, {"type": "Feature", "properties": {"norad_id": 66942, "name": "STARLINK-36100", "group": "last-30-days", "lat": -27.583562450807772, "lon": -178.3625121080872, "alt_km": 414.2433439083143, "timestamp": "2025-12-27T04:40:44.220492+00:00", "meta": {"OBJECT_NAME": "STARLINK-36100", "OBJECT_ID": "2025-286T", "EPOCH": "2025-12-26T22:00:01.999584", "MEAN_MOTION": 15.53504661, "ECCENTRICITY": 0.00012724, "INCLINATION": 53.1593, "RA_OF_ASC_NODE": 339.9164, "ARG_OF_PERICENTER": 79.7349, "MEAN_ANOMALY": 19.0207, "EPHEMERIS_TYPE": 0, "CLASSIFICATION_TYPE": "U", "NORAD_CAT_ID": 66942, "ELEMENT_SET_NO": 999, "REV_AT_EPOCH": 420, "BSTAR": -0.034940293, "MEAN_MOTION_DOT": -0.02017612, "MEAN_MOTION_DDOT": 0}, "tle": {"line1": "1 66942U 25286T   25360.91668981 -.02017612  00000+0 -34940-1 0  9995", "line2": "2 66942  53.1593 339.9164 0001272  79.7349  19.0207 15.53504661  4202"}}, "geometry": {"type": "Point", "coordinates": [-178.3625121080872, -27.583562450807772]}}, {"type": "Feature", "properties": {"norad_id": 66943, "name": "STARLINK-36109", "group": "last-30-days", "lat": -28.986002610505395, "lon": -176.88456263966086, "alt_km": 414.31288860029053, "timestamp": "2025-12-27T04:40:44.220504+00:00", "meta": {"OBJECT_NAME": "STARLINK-36109", "OBJECT_ID": "2025-286U", "EPOCH": "2025-12-26T22:00:01.999584", "MEAN_MOTION": 15.53502342, "ECCENTRICITY": 0.000128, "INCLINATION": 53.1595, "RA_OF_ASC_NODE": 339.9124, "ARG_OF_PERICENTER": 84.9818, "MEAN_ANOMALY": 15.6922, "EPHEMERIS_TYPE": 0, "CLASSIFICATION_TYPE": "U", "NORAD_CAT_ID": 66943, "ELEMENT_SET_NO": 999, "REV_AT_EPOCH": 420, "BSTAR": -0.034888048, "MEAN_MOTION_DOT": -0.02014766, "MEAN_MOTION_DDOT": 0}, "tle": {"line1": "1 66943U 25286U   25360.91668981 -.02014766  00000+0 -34888-1 0  9994", "line2": "2 66943  53.1595 339.9124 0001280  84.9818  15.6922 15.53502342  4209"}}, "geometry": {"type": "Point", "coordinates": [-176.88456263966086, -28.986002610505395]}}, {"type": "Feature", "properties": {"norad_id": 66944, "name": "STARLINK-36112", "group": "last-30-days", "lat": -30.370659028187383, "lon": -175.3672633845096, "alt_km": 414.47188502900735, "timestamp": "2025-12-27T04:40:44.220514+00:00", "meta": {"OBJECT_NAME": "STARLINK-36112", "OBJECT_ID": "2025-286V", "EPOCH": "2025-12-26T22:00:01.999584", "MEAN_MOTION": 15.53504383, "ECCENTRICITY": 0.0001325, "INCLINATION": 53.1592, "RA_OF_ASC_NODE": 339.908, "ARG_OF_PERICENTER": 83.0094, "MEAN_ANOMALY": 19.5806, "EPHEMERIS_TYPE": 0, "CLASSIFICATION_TYPE": "U", "NORAD_CAT_ID": 66944, "ELEMENT_SET_NO": 999, "REV_AT_EPOCH": 426, "BSTAR": -0.034962963, "MEAN_MOTION_DOT": -0.02018796, "MEAN_MOTION_DDOT": 0}, "tle": {"line1": "1 66944U 25286V   25360.91668981 -.02018796  00000+0 -34963-1 0  9996", "line2": "2 66944  53.1592 339.9080 0001325  83.0094  19.5806 15.53504383  4261"}}, "geometry": {"type": "Point", "coordinates": [-175.3672633845096, -30.370659028187383]}}, {"type": "Feature", "properties": {"norad_id": 66945, "name": "STARLINK-36110", "group": "last-30-days", "lat": -31.73771161362479, "lon": -173.80569202283522, "alt_km": 414.40498001553624, "timestamp": "2025-12-27T04:40:44.220526+00:00", "meta": {"OBJECT_NAME": "STARLINK-36110", "OBJECT_ID": "2025-286W", "EPOCH": "2025-12-26T22:00:01.999584", "MEAN_MOTION": 15.53504962, "ECCENTRICITY": 0.0001186, "INCLINATION": 53.159, "RA_OF_ASC_NODE": 339.9039, "ARG_OF_PERICENTER": 93.3564, "MEAN_ANOMALY": 11.1503, "EPHEMERIS_TYPE": 0, "CLASSIFICATION_TYPE": "U", "NORAD_CAT_ID": 66945, "ELEMENT_SET_NO": 999, "REV_AT_EPOCH": 426, "BSTAR": -0.034964735, "MEAN_MOTION_DOT": -0.02018843, "MEAN_MOTION_DDOT": 0}, "tle": {"line1": "1 66945U 25286W   25360.91668981 -.02018843  00000+0 -34965-1 0  9992", "line2": "2 66945  53.1590 339.9039 0001186  93.3564  11.1503 15.53504962  4260"}}, "geometry": {"type": "Point", "coordinates": [-173.80569202283522, -31.73771161362479]}}, {"type": "Feature", "properties": {"norad_id": 66946, "name": "STARLINK-36115", "group": "last-30-days", "lat": -33.08470067512006, "lon": -172.19801448054525, "alt_km": 414.58287561751695, "timestamp": "2025-12-27T04:40:44.220536+00:00", "meta": {"OBJECT_NAME": "STARLINK-36115", "OBJECT_ID": "2025-286X", "EPOCH": "2025-12-26T22:00:01.999584", "MEAN_MOTION": 15.53508, "ECCENTRICITY": 0.00012552, "INCLINATION": 53.1591, "RA_OF_ASC_NODE": 339.9001, "ARG_OF_PERICENTER": 89.2041, "MEAN_ANOMALY": 17.2181, "EPHEMERIS_TYPE": 0, "CLASSIFICATION_TYPE": "U", "NORAD_CAT_ID": 66946, "ELEMENT_SET_NO": 999, "REV_AT_EPOCH": 426, "BSTAR": -0.035053973, "MEAN_MOTION_DOT": -0.0202369, "MEAN_MOTION_DDOT": 0}, "tle": {"line1": "1 66946U 25286X   25360.91668981 -.02023690  00000+0 -35054-1 0  9999", "line2": "2 66946  53.1591 339.9001 0001255  89.2041  17.2181 15.53508000  4268"}}, "geometry": {"type": "Point", "coordinates": [-172.19801448054525, -33.08470067512006]}}, {"type": "Feature", "properties": {"norad_id": 66947, "name": "STARLINK-36089", "group": "last-30-days", "lat": -35.71281340360019, "lon": -168.83166975163053, "alt_km": 414.7685855989994, "timestamp": "2025-12-27T04:40:44.220546+00:00", "meta": {"OBJECT_NAME": "STARLINK-36089", "OBJECT_ID": "2025-286Y", "EPOCH": "2025-12-26T22:00:01.999584", "MEAN_MOTION": 15.53503779, "ECCENTRICITY": 0.00013401, "INCLINATION": 53.1598, "RA_OF_ASC_NODE": 339.8916, "ARG_OF_PERICENTER": 93.9253, "MEAN_ANOMALY": 16.3316, "EPHEMERIS_TYPE": 0, "CLASSIFICATION_TYPE": "U", "NORAD_CAT_ID": 66947, "ELEMENT_SET_NO": 999, "REV_AT_EPOCH": 426, "BSTAR": -0.034940735, "MEAN_MOTION_DOT": -0.02017617, "MEAN_MOTION_DDOT": 0}, "tle": {"line1": "1 66947U 25286Y   25360.91668981 -.02017617  00000+0 -34941-1 0  9996", "line2": "2 66947  53.1598 339.8916 0001340  93.9253  16.3316 15.53503779  4260"}}, "geometry": {"type": "Point", "coordinates": [-168.83166975163053, -35.71281340360019]}}, {"type": "Feature", "properties": {"norad_id": 66948, "name": "STARLINK-36116", "group": "last-30-days", "lat": -34.410818289355085, "lon": -170.54073427133937, "alt_km": 414.6374335692335, "timestamp": "2025-12-27T04:40:44.220556+00:00", "meta": {"OBJECT_NAME": "STARLINK-36116", "OBJECT_ID": "2025-286Z", "EPOCH": "2025-12-26T22:00:01.999584", "MEAN_MOTION": 15.53507048, "ECCENTRICITY": 0.00012551, "INCLINATION": 53.1595, "RA_OF_ASC_NODE": 339.8959, "ARG_OF_PERICENTER": 93.5979, "MEAN_ANOMALY": 14.7419, "EPHEMERIS_TYPE": 0, "CLASSIFICATION_TYPE": "U", "NORAD_CAT_ID": 66948, "ELEMENT_SET_NO": 999, "REV_AT_EPOCH": 426, "BSTAR": -0.035038398, "MEAN_MOTION_DOT": -0.02022822, "MEAN_MOTION_DDOT": 0}, "tle": {"line1": "1 66948U 25286Z   25360.91668981 -.02022822  00000+0 -35038-1 0  9999", "line2": "2 66948  53.1595 339.8959 0001255  93.5979  14.7419 15.53507048  4260"}}, "geometry": {"type": "Point", "coordinates": [-170.54073427133937, -34.410818289355085]}}, {"type": "Feature", "properties": {"norad_id": 66949, "name": "STARLINK-36096", "group": "last-30-days", "lat": -36.99103361890937, "lon": -167.0634367623578, "alt_km": 414.88640349581874, "timestamp": "2025-12-27T04:40:44.220566+00:00", "meta": {"OBJECT_NAME": "STARLINK-36096", "OBJECT_ID": "2025-286AA", "EPOCH": "2025-12-26T22:00:01.999584", "MEAN_MOTION": 15.53504358, "ECCENTRICITY": 0.0001397, "INCLINATION": 53.1599, "RA_OF_ASC_NODE": 339.888, "ARG_OF_PERICENTER": 94.1015, "MEAN_ANOMALY": 18.0735, "EPHEMERIS_TYPE": 0, "CLASSIFICATION_TYPE": "U", "NORAD_CAT_ID": 66949, "ELEMENT_SET_NO": 999, "REV_AT_EPOCH": 426, "BSTAR": -0.034973489, "MEAN_MOTION_DOT": -0.0201938, "MEAN_MOTION_DDOT": 0}, "tle": {"line1": "1 66949U 25286AA  25360.91668981 -.02019380  00000+0 -34973-1 0  9992", "line2": "2 66949  53.1599 339.8880 0001397  94.1015  18.0735 15.53504358  4262"}}, "geometry": {"type": "Point", "coordinates": [-167.0634367623578, -36.99103361890937]}}]}